FALCONSAT-10            
1 58291U 23174AM  26068.70247784  .00006748  00000+0  25969-3 0  9991
2 58291  97.3865 145.7938 0008932 169.5942 190.5483 15.26670596129582
STARLINK-33559          
1 62107U 24220V   26068.45072851  .00024827  00000+0  90821-3 0  9995
2 62107  42.9965 206.9707 0001593 212.7647 147.3106 15.27596264 73156
